{
    "links": {
        "self": "http://www.neowsapp.com/rest/v1/neo/3826681?api_key=iIulBulltgU6a56xZRHN4H3l9WmuAYTsLGpBGhQ2"
    },
    "id": "3826681",
    "neo_reference_id": "3826681",
    "name": "(2018 PN10)",
    "designation": "2018 PN10",
    "nasa_jpl_url": "http://ssd.jpl.nasa.gov/sbdb.cgi?sstr=3826681",
    "absolute_magnitude_h": 25.7,
    "estimated_diameter": {
        "kilometers": {
            "estimated_diameter_min": 0.0192555078,
            "estimated_diameter_max": 0.0430566244
        },
        "meters": {
            "estimated_diameter_min": 19.2555078188,
            "estimated_diameter_max": 43.0566244241
        },
        "miles": {
            "estimated_diameter_min": 0.0119648141,
            "estimated_diameter_max": 0.0267541378
        },
        "feet": {
            "estimated_diameter_min": 63.1742402722,
            "estimated_diameter_max": 141.2618956756
        }
    },
    "is_potentially_hazardous_asteroid": false,
    "close_approach_data": [
        {
            "close_approach_date": "2018-08-07",
            "close_approach_date_full": "2018-Aug-07 21:09",
            "epoch_date_close_approach": 1533676140000,
            "relative_velocity": {
                "kilometers_per_second": "7.1253621506",
                "kilometers_per_hour": "25651.3037421528",
                "miles_per_hour": "15938.7225946726"
            },
            "miss_distance": {
                "astronomical": "0.0839202286",
                "lunar": "32.6449689254",
                "kilometers": "12554287.448473082",
                "miles": "7800872.4892172516"
            },
            "orbiting_body": "Earth"
        }
    ],
    "orbital_data": {
        "orbit_id": "3",
        "orbit_determination_date": "2018-09-19 07:00:06",
        "first_observation_date": "2018-08-07",
        "last_observation_date": "2018-09-15",
        "data_arc_in_days": 39,
        "observations_used": 13,
        "orbit_uncertainty": "7",
        "minimum_orbit_intersection": ".0809571",
        "jupiter_tisserand_invariant": "4.185",
        "epoch_osculation": "2459000.5",
        "eccentricity": ".3420597844842609",
        "semi_major_axis": "1.653689457894504",
        "inclination": "11.2920279037368",
        "ascending_node_longitude": "322.3311134120355",
        "orbital_period": "776.7466048008976",
        "perihelion_distance": "1.088028798323216",
        "perihelion_argument": "345.0607906693029",
        "aphelion_distance": "2.219350117465792",
        "perihelion_time": "2459106.420158639985",
        "mean_anomaly": "310.9090134740034",
        "mean_motion": ".4634716106577361",
        "equinox": "J2000",
        "orbit_class": {
            "orbit_class_type": "AMO",
            "orbit_class_description": "Near-Earth asteroid orbits similar to that of 1221 Amor",
            "orbit_class_range": "1.017 AU < q (perihelion) < 1.3 AU"
        }
    },
    "is_sentry_object": false
}